396P/,e,5.4369,136.6516,8.4095,6.806261,0.0555062,0.41577094,68.2464,01/08.0/2023,2000,g 12.0,4.0
# From MPEC 2022-OB6
397P/Lemmon,e,10.9297,8.1948,14.5227,3.829928,0.1314977,0.40529879,122.5767,01/08.0/2023,2000,g 12.0,4.0
# From MPEC 2021-L04
398P/Boattini,e,11.0168,127.4411,320.2031,3.126626,0.1782749,0.58304516,132.2948,01/08.0/2023,2000,g 15.5,4.0
# From MPEC 2022-M88
399P/PANSTARRS,e,13.3214,207.1314,214.3467,3.791920,0.1334797,0.44727518,79.4488,01/08.0/2023,2000,g 14.0,4.0
# From MPEC 2022-ED3
400P/PANSTARRS,e,10.9302,176.3914,238.8245,3.561531,0.1466388,0.40956011,102.1526,01/08.0/2023,2000,g 15.5,2.8
# From MPEC 2022-K19
401P/McNaught,e,12.8026,359.8799,309.4310,5.776914,0.0709840,0.57953139,80.0885,01/08.0/2023,2000,g 12.5,4.0
# From MPEC 2023-A16
402P/LINEAR,e,30.8442,123.0916,326.7514,7.024203,0.0529430,0.43937582,20.6092,01/08.0/2023,2000,g  8.0,4.0
# From MPEC 2021-J28
403P/Catalina,e,12.3212,163.8105,277.6367,5.428524,0.0779258,0.50390204,65.7250,01/08.0/2023,2000,g 12.0,4.0
# From MPEC 2022-X67
404P/Bressi,e,9.7594,260.1706,168.6725,4.757192,0.0949900,0.13106866,331.9448,01/08.0/2023,2000,g 10.0,4.0
# From MPEC 2021-L04
405P/Lemmon,e,9.3656,3.3125,112.1890,3.606124,0.1439273,0.68930719,107.1794,01/08.0/2023,2000,g 17.5,4.0
# From MPEC 2021-F20
406P/Gibbs,e,1.2131,11.4900,352.4269,3.576854,0.1456976,0.54201299,122.9786,01/08.0/2023,2000,g 17.0,4.0
# From MPEC 2022-YN2
407P/PANSTARRS-Fuls,e,4.8741,80.4015,93.5223,3.476453,0.1520546,0.38000307,163.4049,01/08.0/2023,2000,g 14.0,4.0
# From MPEC 2023-A16
408P/Novichonok-Gerke,e,19.3569,189.4415,226.4779,4.742878,0.0954204,0.26889134,9.0486,01/08.0/2023,2000,g 11.0,4.0
# From MPEC 2022-ED3
409P/LONEOS-Hill,e,17.1210,143.6652,15.0956,6.038741,0.0664178,0.70963093,47.1570,01/08.0/2023,2000,g 14.0,4.0
# From MPEC 2022-M21
410P/NEAT-LINEAR,e,9.3922,139.9764,313.1027,6.641196,0.0575883,0.51115065,32.4397,01/08.0/2023,2000,g 12.5,4.0
# From MPEC 2021-J28
411P/Christensen,e,12.3826,77.6539,46.6038,5.813090,0.0703224,0.58087942,50.1877,01/08.0/2023,2000,g 13.5,4.0
# From MPEC 2021-F20
412P/WISE,e,8.9313,0.8447,155.9418,3.110114,0.1796965,0.47915028,137.3018,01/08.0/2023,2000,g 17.0,4.0
# From MPEC 2022-OB6
413P/Larson,e,15.9838,38.9702,186.3481,3.717364,0.1375154,0.42316094,73.7539,01/08.0/2023,2000,g 14.0,4.0
# From MPEC 2021-BE3
414P/STEREO,e,23.3946,257.7982,210.7015,2.793438,0.2111035,0.81174918,150.4481,01/08.0/2023,2000,g 19.0,4.0
# From MPEC 2022-J42
415P/Tenagra,e,31.7919,160.2904,346.0328,4.112420,0.1181838,0.19467767,81.9059,01/08.0/2023,2000,g 12.0,4.0
# From MPEC 2021-L04
416P/Scotti,e,3.3612,355.8041,134.4251,4.009983,0.1227412,0.45439517,84.8985,01/08.0/2023,2000,g 15.5,4.0
# From MPEC 2021-W31
417P/NEOWISE,e,8.1246,110.8619,129.6447,3.342875,0.1612590,0.55741973,100.7540,01/08.0/2023,2000,g 16.5,4.0
# From MPEC 2022-TA0
418P/LINEAR,e,5.7899,277.5507,307.3511,5.091316,0.0857944,0.66491616,38.3774,01/08.0/2023,2000,g 13.0,4.0
# From MPEC 2022-ST7
419P/PANSTARRS,e,2.8030,40.3881,187.5914,3.521463,0.1491487,0.27746424,65.2203,01/08.0/2023,2000,g 12.5,4.0
# From MPEC 2022-OB6
420P/Hill,e,14.5014,173.9452,156.9482,5.538518,0.0756160,0.49681224,17.4684,01/08.0/2023,2000,g 11.5,4.0
# From MPEC 2021-W31
421P/McNaught,e,10.0772,55.3402,259.8716,5.076289,0.0861756,0.67526418,61.3850,01/08.0/2023,2000,g 14.0,4.0
# From MPEC 2022-X67
422P/Christensen,e,39.5786,36.0245,305.0483,6.305844,0.0622428,0.50776663,22.3941,01/08.0/2023,2000,g 11.0,4.0
# From MPEC 2022-A21
423P/Lemmon,e,8.3463,33.2959,80.3010,6.169841,0.0643122,0.12159610,30.6431,01/08.0/2023,2000,g  8.0,4.0
# From MPEC 2022-CN4
424P/LaSagra,e,8.6850,51.1682,312.5174,4.416300,0.1061980,0.69128448,46.0210,01/08.0/2023,2000,g 17.0,4.0
# From MPEC 2022-OB6
425P/Kowalski,e,16.4205,210.0769,200.8027,6.337270,0.0617804,0.54384523,29.3039,01/08.0/2023,2000,g 12.0,4.0
# From MPEC 2022-P82
426P/PANSTARRS,e,17.7665,280.5026,118.9390,3.188497,0.1731111,0.16158666,317.0389,01/08.0/2023,2000,g 13.5,4.0
# From MPEC 2022-J42
428P/Gibbs,e,8.5124,299.3407,36.8571,3.485521,0.1514616,0.51932693,91.3866,01/08.0/2023,2000,g 15.0,4.0
# From MPEC 2022-H04
429P/LINEAR-Hill,e,7.5209,322.0746,75.5711,3.552223,0.1472156,0.49141317,54.5855,01/08.0/2023,2000,g 15.5,4.0
# From MPEC 2022-L66
430P/Scotti,e,4.4753,54.6734,94.4638,3.105533,0.1800942,0.49954830,72.3672,01/08.0/2023,2000,g 16.5,4.0
# From MPEC 2022-ED3
431P/Scotti,e,22.3923,202.8427,199.8913,3.473631,0.1522399,0.47778124,50.0211,01/08.0/2023,2000,g 14.0,4.0
# From MPEC 2021-U31
432P/PANSTARRS,e,10.0689,239.1411,105.2607,3.035568,0.1863563,0.24185735,92.3683,01/08.0/2023,2000,g 17.0,4.0
# From MPEC 2022-OB6
434P/Tenagra,e,6.3381,288.9654,128.1286,4.130279,0.1174181,0.27462695,51.5245,01/08.0/2023,2000,g 13.0,4.0
# From MPEC 2021-W31
435P/PANSTARRS,e,18.8801,98.5499,244.1915,3.018953,0.1878969,0.31856812,99.4940,01/08.0/2023,2000,g 17.0,4.0
# From MPEC 2022-X67
436P/Garradd,e,20.2078,87.1877,282.6234,5.930722,0.0682406,0.66982367,26.9871,01/08.0/2023,2000,g 14.5,4.0
# From MPEC 2021-Y10
437P/Lemmon-PANSTARRS,e,3.6890,245.8633,206.7452,4.561022,0.1011838,0.25450638,14.4098,01/08.0/2023,2000,g 13.0,4.0
# From MPEC 2021-W47
438P/Christensen,e,8.2844,260.1433,59.0035,3.848514,0.1305463,0.41538635,131.5673,01/08.0/2023,2000,g 14.5,4.0
# From MPEC 2022-C56
439P/LINEAR,e,7.1143,56.4057,342.0461,3.489139,0.1512260,0.46960941,75.5812,01/08.0/2023,2000,g 13.5,4.0
# From MPEC 2022-WQ9
440P/Kobayashi,e,12.3389,328.8768,183.3037,8.581719,0.0392051,0.76043081,11.1376,01/08.0/2023,2000,g 15.5,4.0
# From MPEC 2022-X67
441P/PANSTARRS,e,2.5745,143.6156,178.7951,4.134521,0.1172374,0.19544182,245.7343,01/08.0/2023,2000,g 13.5,4.0
# From MPEC 2022-YN2
442P/McNaught,e,6.0588,32.0154,310.9385,4.978774,0.0887198,0.53357378,12.5953,01/08.0/2023,2000,g 13.5,4.0
# From MPEC 2022-OB6
443P/PANSTARRS-Christensen,e,19.8872,108.9432,145.1126,4.127265,0.1175467,0.28374291,10.5606,01/08.0/2023,2000,g 13.5,4.0
# From MPEC 2022-YN2
444P/WISE-PANSTARRS,e,22.1237,89.3976,170.9211,3.428870,0.1552307,0.57032988,28.1881,01/08.0/2023,2000,g 17.0,4.0
# From MPEC 2022-YB4
445P/Lemmon-PANSTARRS,e,1.0885,126.5778,213.6867,4.061355,0.1204197,0.41451853,17.2544,01/08.0/2023,2000,g 15.0,4.0
# From MPEC 2022-WQ9
446P/McNaught,e,16.6134,336.4046,344.7266,4.572250,0.1008113,0.64710143,22.5218,01/08.0/2023,2000,g 16.5,4.0
# From MPEC 2022-YB4
447P/Sheppard-Tholen,e,7.4336,302.6733,97.6646,5.641661,0.0735519,0.17987663,10.4416,01/08.0/2023,2000,g 12.0,4.0
# From MPEC 2023-A16
448P/PANSTARRS,e,12.1515,161.7548,218.7271,3.635038,0.1422135,0.41898171,17.5560,01/08.0/2023,2000,g 16.0,4.0
# From MPEC 2022-UE6
449P/Leonard,e,15.4646,242.5333,176.6853,3.600139,0.1442863,0.47959751,111.8376,01/08.0/2023,2000,g 16.0,4.0
# From MPEC 2022-TA6
450P/LONEOS,e,10.5518,124.8570,21.0969,7.972270,0.0437856,0.31035233,295.6125,01/08.0/2023,2000,g  6.5,4.0
# From MPEC 2023-A16
451P/Christensen,e,26.4828,300.9125,186.6962,6.337769,0.0617731,0.55843760,2.5616,01/08.0/2023,2000,g 13.5,4.0
# From MPEC 2022-YB4
452P/Sheppard-Jewitt,e,6.4227,123.7005,37.0576,7.293469,0.0500383,0.42713880,354.6095,01/08.0/2023,2000,g  9.0,4.0
# From MPC107687
1I/`Oumuamua,h,09/09.4886/2017,122.6778,24.5997,241.6845,1.199252,0.255240,2000,23.0,2.0
# From MPEC 2020-K19
2I/Borisov,h,12/08.5549/2019,44.0527,308.1480,209.1251,3.356636,2.006548,2000,11.0,4.0
